[{"OBJECT_ID":"2002-038A","OBJECT_NAME":"EUTE 8 WEST C (HB 6)","NORAD_CAT_ID":"27499","OBJECT_TYPE":"PAYLOAD","PERIOD":"1449.739","INCLINATION":"0.1661","APOGEE":"36063.630","PERIGEE":"36042.813","ECCENTRICITY":"0.0002453","MEAN_MOTION":"0.99328159","TLE_LINE1":"1 27499U 02038A   16239.04767520 -.00000127  00000-0  00000+0 0  9996","TLE_LINE2":"2 27499   0.1661  83.0253 0002453 108.9497 168.0124  0.99328159 51307","LAUNCH_DATE":"2002-08-21","LAUNCH_SITE":"AIR FORCE EASTERN TEST RANGE","OWNER":"EUROPEAN TELECOMMUNICATIONS SATELLITE ORGANIZATION (EUTELSAT)","ORBIT_TYPE":"Geosynchronous","OPERATIONAL_STATUS":"Nonoperational","satInfo":{"lng":47.69106854296861,"lat":-1.698739528584069,"elevation":-10.177300954837396,"azimuth":267.30893145703135,"range":43089.336785947155,"height":36051.84736554375,"velocity":3.065153537013413},"x":254.14189556256355,"y":-234.96354929317494,"dx":2.0632400616053186,"dy":2.266761269664875,"maxAlt":344.4393216638135,"minAlt":344.2394011681524},{"OBJECT_ID":"2002-039A","OBJECT_NAME":"ECHOSTAR 8","NORAD_CAT_ID":"27501","OBJECT_TYPE":"PAYLOAD","PERIOD":"1436.108","INCLINATION":"0.469","APOGEE":"35799.794","PERIGEE":"35773.863","ECCENTRICITY":"0.0003075","MEAN_MOTION":"1.00270958","TLE_LINE1":"1 27501U 02039A   16238.35728880 -.00000268  00000-0  00000+0 0  9996","TLE_LINE2":"2 27501   0.4690  89.8126 0003075  74.0081 221.9483  1.00270958 51350","LAUNCH_DATE":"2002-08-22","LAUNCH_SITE":"TYURATAM MISSILE AND SPACE COMPLEX","OWNER":"UNITED STATES OF AMERICA","ORBIT_TYPE":"Geosynchronous","OPERATIONAL_STATUS":"Operational","satInfo":{"lng":-95.1932661932921,"lat":2.6854598330117128,"elevation":-5.941311648949246,"azimuth":50.1932661932921,"range":42348.35038480215,"height":35788.99804451085,"velocity":3.0749852555115282},"x":-344.20180037596793,"y":29.205413477992906,"dx":-0.2783339391130282,"dy":-3.0623625748678296,"maxAlt":341.905516413622,"minAlt":341.65648252915315},{"OBJECT_ID":"2002-040A","OBJECT_NAME":"EUTE 12 WEST A (AB 1)","NORAD_CAT_ID":"27508","OBJECT_TYPE":"PAYLOAD","PERIOD":"1436.125","INCLINATION":"0.0686","APOGEE":"35795.418","PERIGEE":"35778.898","ECCENTRICITY":"0.0001959","MEAN_MOTION":"1.00269782","TLE_LINE1":"1 27508U 02040A   16239.16987812 -.00000273  00000-0  00000+0 0  9993","TLE_LINE2":"2 27508   0.0686 358.3349 0001959 185.2218 176.4348  1.00269782 51330","LAUNCH_DATE":"2002-08-28","LAUNCH_SITE":"FRENCH GUIANA","OWNER":"EUROPEAN TELECOMMUNICATIONS SATELLITE ORGANIZATION (EUTELSAT)","ORBIT_TYPE":"Geosynchronous","OPERATIONAL_STATUS":"Operational","satInfo":{"lng":-41.13508695898507,"lat":-0.07852914701091934,"elevation":-8.654011857855277,"azimuth":356.1350869589851,"range":42632.70470686633,"height":35769.2329325597,"velocity":3.0756315569222124},"x":-227.88378351457507,"y":-260.62927321689966,"dx":2.3164447721591013,"dy":-2.023262981293465,"maxAlt":341.86349056508413,"minAlt":341.7048372246258},{"OBJECT_ID":"2002-041A","OBJECT_NAME":"INTELSAT 906","NORAD_CAT_ID":"27513","OBJECT_TYPE":"PAYLOAD","PERIOD":"1436.093","INCLINATION":"0.0499","APOGEE":"35798.568","PERIGEE":"35774.475","ECCENTRICITY":"0.0002857","MEAN_MOTION":"1.00272053","TLE_LINE1":"1 27513U 02041A   16238.94383203 -.00000013 +00000-0 +00000-0 0  9992","TLE_LINE2":"2 27513 000.0499 270.4908 0002857 286.1138 181.9385 01.00272053051116","LAUNCH_DATE":"2002-09-06","LAUNCH_SITE":"FRENCH GUIANA","OWNER":"INTERNATIONAL TELECOMMUNICATIONS SATELLITE ORGANIZATION (INTELSAT)","ORBIT_TYPE":"Geosynchronous","OPERATIONAL_STATUS":"Operational","satInfo":{"lng":86.09391161241525,"lat":2.1921946330324147,"elevation":-6.425703964047532,"azimuth":228.90608838758476,"range":42404.71956883188,"height":35791.01899621725,"velocity":3.0743927844376855},"x":341.0227824416539,"y":-25.32054473274506,"dx":0.20943165352800525,"dy":3.067251110604254,"maxAlt":341.89374226135794,"minAlt":341.6623600015721},{"OBJECT_ID":"2002-051A","OBJECT_NAME":"EUTE 25C (EUTE W5)","NORAD_CAT_ID":"27554","OBJECT_TYPE":"PAYLOAD","PERIOD":"1435.691","INCLINATION":"0.7679","APOGEE":"35819.702","PERIGEE":"35737.606","ECCENTRICITY":"0.0009737","MEAN_MOTION":"1.00300124","TLE_LINE1":"1 27554U 02051A   16239.42919880 -.00000380  00000-0  00000+0 0  9994","TLE_LINE2":"2 27554   0.7679  89.6988 0009737 207.0088 318.5199  1.00300124 50443","LAUNCH_DATE":"2002-11-20","LAUNCH_SITE":"AIR FORCE EASTERN TEST RANGE","OWNER":"EUROPEAN TELECOMMUNICATIONS SATELLITE ORGANIZATION (EUTELSAT)","ORBIT_TYPE":"Geosynchronous","OPERATIONAL_STATUS":"Nonoperational","satInfo":{"lng":123.14151459405973,"lat":-2.8571656557778957,"elevation":-11.357651152735734,"azimuth":191.85848540594026,"range":42938.63427784974,"height":35771.97379739993,"velocity":3.076146254687229},"x":285.751603338375,"y":185.91296997979006,"dx":-1.681756228775611,"dy":2.575727424864809,"maxAlt":342.09670713407263,"minAlt":341.3082807031848},{"OBJECT_ID":"2002-057A","OBJECT_NAME":"NSS 6","NORAD_CAT_ID":"27603","OBJECT_TYPE":"PAYLOAD","PERIOD":"1436.154","INCLINATION":"0.0199","APOGEE":"35796.899","PERIGEE":"35778.540","ECCENTRICITY":"0.0002177","MEAN_MOTION":"1.00267778","TLE_LINE1":"1 27603U 02057A   16238.91824346 -.00000297 +00000-0 +00000-0 0  9998","TLE_LINE2":"2 27603 000.0199 124.8491 0002177 083.8884 191.4202 01.00267778050174","LAUNCH_DATE":"2002-12-17","LAUNCH_SITE":"FRENCH GUIANA","OWNER":"SOCIÉTÉ EUROPÉENNE DES SATELLITES","ORBIT_TYPE":"Geosynchronous","OPERATIONAL_STATUS":"Operational","satInfo":{"lng":55.16523285867196,"lat":-0.31291339293386045,"elevation":-8.880171545456406,"azimuth":259.834767141328,"range":42671.557354518896,"height":35782.559341120184,"velocity":3.07497455062664},"x":280.1596823851655,"y":-198.1997395039271,"dx":1.7564615537302317,"dy":2.52394756230574,"maxAlt":341.87771366418934,"minAlt":341.70139909533503},{"OBJECT_ID":"2002-062A","OBJECT_NAME":"NIMIQ 2","NORAD_CAT_ID":"27632","OBJECT_TYPE":"PAYLOAD","PERIOD":"1436.064","INCLINATION":"1.3724","APOGEE":"35799.026","PERIGEE":"35772.884","ECCENTRICITY":"0.00031","MEAN_MOTION":"1.00274072","TLE_LINE1":"1 27632U 02062A   16238.24077372 +.00000111 +00000-0 +00000-0 0  9995","TLE_LINE2":"2 27632 001.3724 083.7594 0003100 020.8984 339.6488 01.00274072008282","LAUNCH_DATE":"2002-12-29","LAUNCH_SITE":"TYURATAM MISSILE AND SPACE COMPLEX","OWNER":"CANADA","ORBIT_TYPE":"Geosynchronous","OPERATIONAL_STATUS":"Operational","satInfo":{"lng":54.649684259047866,"lat":-2.8128023700471645,"elevation":-11.314175791889959,"azimuth":260.35031574095206,"range":42936.05185457976,"height":35774.23595114291,"velocity":3.0746729201627216},"x":278.31682976196623,"y":-200.6835380121435,"dx":1.7789261587219445,"dy":2.507794905449157,"maxAlt":341.89814076195904,"minAlt":341.6470804940255},{"OBJECT_ID":"2003-007A","OBJECT_NAME":"INTELSAT 907","NORAD_CAT_ID":"27683","OBJECT_TYPE":"PAYLOAD","PERIOD":"1436.090","INCLINATION":"0.0291","APOGEE":"35798.049","PERIGEE":"35774.909","ECCENTRICITY":"0.0002744","MEAN_MOTION":"1.00272205","TLE_LINE1":"1 27683U 03007A   16239.14634732 -.00000230  00000-0  00000+0 0  9992","TLE_LINE2":"2 27683   0.0291 254.5025 0002744 278.7485 186.7456  1.00272205 49471","LAUNCH_DATE":"2003-02-15","LAUNCH_SITE":"FRENCH GUIANA","OWNER":"INTERNATIONAL TELECOMMUNICATIONS SATELLITE ORGANIZATION (INTELSAT)","ORBIT_TYPE":"Geosynchronous","OPERATIONAL_STATUS":"Operational","satInfo":{"lng":-55.732102781133605,"lat":-1.6957400006084027,"elevation":-10.233036855139764,"azimuth":10.732102781133579,"range":42795.14410421465,"height":35754.712011412536,"velocity":3.0762656952455902},"x":-285.6777860951352,"y":-195.2489127368566,"dx":1.7321316934614197,"dy":-2.5422687553150847,"maxAlt":341.8887579342576,"minAlt":341.6665280130587},{"OBJECT_ID":"2003-013A","OBJECT_NAME":"INSAT 3A","NORAD_CAT_ID":"27714","OBJECT_TYPE":"PAYLOAD","PERIOD":"1436.076","INCLINATION":"0.0637","APOGEE":"35810.707","PERIGEE":"35761.696","ECCENTRICITY":"0.0005812","MEAN_MOTION":"1.00273194","TLE_LINE1":"1 27714U 03013A   16238.95394581 -.00000286 +00000-0 +00000-0 0  9999","TLE_LINE2":"2 27714 000.0637 273.6428 0005812 201.8514 296.0580 01.00273194048962","LAUNCH_DATE":"2003-04-09","LAUNCH_SITE":"FRENCH GUIANA","OWNER":"INDIA","ORBIT_TYPE":"Geosynchronous","OPERATIONAL_STATUS":"Operational","satInfo":{"lng":56.68398591106184,"lat":1.5118837308684328,"elevation":-7.08957877408143,"azimuth":258.3160140889382,"range":42498.06541074667,"height":35809.67713015922,"velocity":3.0730266238666086},"x":285.48083571005293,"y":-190.79793311500924,"dx":1.6878795513460572,"dy":2.5679866142838126,"maxAlt":342.01032173471293,"minAlt":341.53963415183136},{"OBJECT_ID":"2003-013B","OBJECT_NAME":"GALAXY 12","NORAD_CAT_ID":"27715","OBJECT_TYPE":"PAYLOAD","PERIOD":"1436.087","INCLINATION":"0.0631","APOGEE":"35797.477","PERIGEE":"35775.349","ECCENTRICITY":"0.0002624","MEAN_MOTION":"1.00272441","TLE_LINE1":"1 27715U 03013B   16239.41313241  .00000030  00000-0  00000+0 0  9991","TLE_LINE2":"2 27715   0.0631 270.2521 0002624 271.7312 172.8168  1.00272441 49096","LAUNCH_DATE":"2003-04-09","LAUNCH_SITE":"FRENCH GUIANA","OWNER":"INTERNATIONAL TELECOMMUNICATIONS SATELLITE ORGANIZATION (INTELSAT)","ORBIT_TYPE":"Geosynchronous","OPERATIONAL_STATUS":"Operational (spare)","satInfo":{"lng":-111.06740327629005,"lat":-1.9073750280436506,"elevation":-10.435655849475811,"azimuth":66.06740327629002,"range":42834.01236752155,"height":35770.68478740808,"velocity":3.0753886597033966},"x":-322.4745694347065,"y":121.58241284798012,"dx":-1.1054975794345712,"dy":-2.8698241252900076,"maxAlt":341.8832646103628,"minAlt":341.670753646824}]